{
  "type": "FeatureCollection",
  "features": [
    {
      "type": "Feature",
      "properties": {
        "norad_id": 43246,
        "name": "BEIDOU-3 M10 (C30)",
        "group": "gnss",
        "lat": -38.6208482947715,
        "lon": -88.43215643583568,
        "alt_km": 21525.6821523224,
        "timestamp": "2025-12-11T22:43:47.510848+00:00",
        "meta_object_name": "BEIDOU-3 M10 (C30)",
        "meta_object_id": "2018-029B",
        "meta_epoch": "2025-12-10T09:51:50.083776",
        "meta_mean_motion": 1.86228788,
        "meta_eccentricity": 0.00039909,
        "meta_inclination": 54.3654,
        "meta_ra_of_asc_node": 306.5763,
        "meta_arg_of_pericenter": 359.52,
        "meta_mean_anomaly": 0.4707,
        "meta_ephemeris_type": 0,
        "meta_classification_type": "U",
        "meta_norad_cat_id": 43246,
        "meta_element_set_no": 999,
        "meta_rev_at_epoch": 5236,
        "meta_bstar": 0,
        "meta_mean_motion_dot": -8.1e-07,
        "meta_mean_motion_ddot": 0,
        "tle_line1": "1 43246U 18029B   25344.41099634 -.00000081  00000+0  00000+0 0  9991",
        "tle_line2": "2 43246  54.3654 306.5763 0003990 359.5200   0.4707  1.86228788 52367"
      },
      "geometry": {
        "type": "Point",
        "coordinates": [
          -88.43215643583568,
          -38.6208482947715
        ]
      }
    },
    {
      "type": "Feature",
      "properties": {
        "norad_id": 43286,
        "name": "IRNSS-1I",
        "group": "gnss",
        "lat": 18.116070478734663,
        "lon": 112.9723995996831,
        "alt_km": 35857.15624177405,
        "timestamp": "2025-12-11T22:43:47.510869+00:00",
        "meta_object_name": "IRNSS-1I",
        "meta_object_id": "2018-035A",
        "meta_epoch": "2025-12-10T20:46:45.825888",
        "meta_mean_motion": 1.00270473,
        "meta_eccentricity": 0.0021801,
        "meta_inclination": 29.146,
        "meta_ra_of_asc_node": 77.1264,
        "meta_arg_of_pericenter": 181.9029,
        "meta_mean_anomaly": 187.524,
        "meta_ephemeris_type": 0,
        "meta_classification_type": "U",
        "meta_norad_cat_id": 43286,
        "meta_element_set_no": 999,
        "meta_rev_at_epoch": 2819,
        "meta_bstar": 0,
        "meta_mean_motion_dot": 8.2e-07,
        "meta_mean_motion_ddot": 0,
        "tle_line1": "1 43286U 18035A   25344.86580817  .00000082  00000+0  00000+0 0  9999",
        "tle_line2": "2 43286  29.1460  77.1264 0021801 181.9029 187.5240  1.00270473 28197"
      },
      "geometry": {
        "type": "Point",
        "coordinates": [
          112.9723995996831,
          18.116070478734663
        ]
      }
    },
    {
      "type": "Feature",
      "properties": {
        "norad_id": 43508,
        "name": "COSMOS 2527 (756)",
        "group": "gnss",
        "lat": 61.4108448066286,
        "lon": 136.9490065850604,
        "alt_km": 19142.13184653612,
        "timestamp": "2025-12-11T22:43:47.510889+00:00",
        "meta_object_name": "COSMOS 2527 (756)",
        "meta_object_id": "2018-053A",
        "meta_epoch": "2025-12-10T10:35:59.703936",
        "meta_mean_motion": 2.13102031,
        "meta_eccentricity": 0.0008586,
        "meta_inclination": 65.4714,
        "meta_ra_of_asc_node": 80.2084,
        "meta_arg_of_pericenter": 224.5475,
        "meta_mean_anomaly": 135.4001,
        "meta_ephemeris_type": 0,
        "meta_classification_type": "U",
        "meta_norad_cat_id": 43508,
        "meta_element_set_no": 999,
        "meta_rev_at_epoch": 5825,
        "meta_bstar": 0,
        "meta_mean_motion_dot": -1.9e-07,
        "meta_mean_motion_ddot": 0,
        "tle_line1": "1 43508U 18053A   25344.44166324 -.00000019  00000+0  00000+0 0  9994",
        "tle_line2": "2 43508  65.4714  80.2084 0008586 224.5475 135.4001  2.13102031 58254"
      },
      "geometry": {
        "type": "Point",
        "coordinates": [
          136.9490065850604,
          61.4108448066286
        ]
      }
    },
    {
      "type": "Feature",
      "properties": {
        "norad_id": 43539,
        "name": "BEIDOU-2 IGSO-7 (C16)",
        "group": "gnss",
        "lat": 7.279894807204933,
        "lon": 169.77877774573406,
        "alt_km": 36057.31628182674,
        "timestamp": "2025-12-11T22:43:47.510907+00:00",
        "meta_object_name": "BEIDOU-2 IGSO-7 (C16)",
        "meta_object_id": "2018-057A",
        "meta_epoch": "2025-12-10T21:52:21.696672",
        "meta_mean_motion": 1.00257387,
        "meta_eccentricity": 0.0092503,
        "meta_inclination": 55.1742,
        "meta_ra_of_asc_node": 164.6867,
        "meta_arg_of_pericenter": 235.2118,
        "meta_mean_anomaly": 119.0859,
        "meta_ephemeris_type": 0,
        "meta_classification_type": "U",
        "meta_norad_cat_id": 43539,
        "meta_element_set_no": 999,
        "meta_rev_at_epoch": 2723,
        "meta_bstar": 0,
        "meta_mean_motion_dot": -5.8e-07,
        "meta_mean_motion_ddot": 0,
        "tle_line1": "1 43539U 18057A   25344.91136223 -.00000058  00000+0  00000+0 0  9992",
        "tle_line2": "2 43539  55.1742 164.6867 0092503 235.2118 119.0859  1.00257387 27239"
      },
      "geometry": {
        "type": "Point",
        "coordinates": [
          169.77877774573406,
          7.279894807204933
        ]
      }
    },
    {
      "type": "Feature",
      "properties": {
        "norad_id": 43564,
        "name": "GSAT0221 (GALILEO 25)",
        "group": "gnss",
        "lat": 1.495540305691672,
        "lon": -12.198421694627799,
        "alt_km": 23218.322024345576,
        "timestamp": "2025-12-11T22:43:47.510926+00:00",
        "meta_object_name": "GSAT0221 (GALILEO 25)",
        "meta_object_id": "2018-060A",
        "meta_epoch": "2025-12-10T18:30:15.067872",
        "meta_mean_motion": 1.70475777,
        "meta_eccentricity": 0.0006715,
        "meta_inclination": 57.2282,
        "meta_ra_of_asc_node": 346.8706,
        "meta_arg_of_pericenter": 282.7382,
        "meta_mean_anomaly": 77.2035,
        "meta_ephemeris_type": 0,
        "meta_classification_type": "U",
        "meta_norad_cat_id": 43564,
        "meta_element_set_no": 999,
        "meta_rev_at_epoch": 4595,
        "meta_bstar": 0,
        "meta_mean_motion_dot": -8.7e-07,
        "meta_mean_motion_ddot": 0,
        "tle_line1": "1 43564U 18060A   25344.77100773 -.00000087  00000+0  00000+0 0  9991",
        "tle_line2": "2 43564  57.2282 346.8706 0006715 282.7382  77.2035  1.70475777 45957"
      },
      "geometry": {
        "type": "Point",
        "coordinates": [
          -12.198421694627799,
          1.495540305691672
        ]
      }
    },
    {
      "type": "Feature",
      "properties": {
        "norad_id": 43565,
        "name": "GSAT0222 (GALILEO 26)",
        "group": "gnss",
        "lat": -38.01131836942454,
        "lon": -162.93100219999667,
        "alt_km": 23211.92596964571,
        "timestamp": "2025-12-11T22:43:47.510944+00:00",
        "meta_object_name": "GSAT0222 (GALILEO 26)",
        "meta_object_id": "2018-060B",
        "meta_epoch": "2025-12-10T23:46:05.542752",
        "meta_mean_motion": 1.7047557,
        "meta_eccentricity": 0.00061534,
        "meta_inclination": 57.2317,
        "meta_ra_of_asc_node": 346.8677,
        "meta_arg_of_pericenter": 263.342,
        "meta_mean_anomaly": 96.6049,
        "meta_ephemeris_type": 0,
        "meta_classification_type": "U",
        "meta_norad_cat_id": 43565,
        "meta_element_set_no": 999,
        "meta_rev_at_epoch": 4600,
        "meta_bstar": 0,
        "meta_mean_motion_dot": -8.7e-07,
        "meta_mean_motion_ddot": 0,
        "tle_line1": "1 43565U 18060B   25344.99034193 -.00000087  00000+0  00000+0 0  9998",
        "tle_line2": "2 43565  57.2317 346.8677 0006153 263.3420  96.6049  1.70475570 46006"
      },
      "geometry": {
        "type": "Point",
        "coordinates": [
          -162.93100219999667,
          -38.01131836942454
        ]
      }
    },
    {
      "type": "Feature",
      "properties": {
        "norad_id": 43566,
        "name": "GSAT0219 (GALILEO 23)",
        "group": "gnss",
        "lat": 57.185423698475624,
        "lon": 79.46580851578375,
        "alt_km": 23232.111180894455,
        "timestamp": "2025-12-11T22:43:47.510961+00:00",
        "meta_object_name": "GSAT0219 (GALILEO 23)",
        "meta_object_id": "2018-060C",
        "meta_epoch": "2025-12-07T16:36:27.181728",
        "meta_mean_motion": 1.7047564,
        "meta_eccentricity": 0.00057893,
        "meta_inclination": 57.2316,
        "meta_ra_of_asc_node": 346.9585,
        "meta_arg_of_pericenter": 285.9629,
        "meta_mean_anomaly": 73.992,
        "meta_ephemeris_type": 0,
        "meta_classification_type": "U",
        "meta_norad_cat_id": 43566,
        "meta_element_set_no": 999,
        "meta_rev_at_epoch": 4592,
        "meta_bstar": 0,
        "meta_mean_motion_dot": -8.4e-07,
        "meta_mean_motion_ddot": 0,
        "tle_line1": "1 43566U 18060C   25341.69198127 -.00000084  00000+0  00000+0 0  9998",
        "tle_line2": "2 43566  57.2316 346.9585 0005789 285.9629  73.9920  1.70475640 45924"
      },
      "geometry": {
        "type": "Point",
        "coordinates": [
          79.46580851578375,
          57.185423698475624
        ]
      }
    }
  ]
}